{
  "norad_id": 61072,
  "name": "CHAMRAN-1",
  "history": [
    {
      "epoch": "2026-03-28T20:19:23.841408Z",
      "apogee_km": 567.0975968234779,
      "perigee_km": 502.6489844857624,
      "latitude_deg": -8.586547951271498e-06,
      "longitude_deg": 175.1267729110165,
      "height_km": 515.9245913980062,
      "semi_major_axis_km": 6913.01029065462,
      "eccentricity": 0.0046614,
      "inclination_deg": 64.077,
      "raan_deg": 306.2375,
      "arg_perigee_deg": 310.3683,
      "mean_anomaly_deg": 49.3366,
      "mean_motion_rev_day": 15.10434709
    },
    {
      "epoch": "2026-03-29T02:40:45.383232Z",
      "apogee_km": 567.1179317075239,
      "perigee_km": 502.61133088556926,
      "latitude_deg": -1.5685701201158946e-06,
      "longitude_deg": 78.6558877195182,
      "height_km": 515.900022762015,
      "semi_major_axis_km": 6913.001631296546,
      "eccentricity": 0.0046656,
      "inclination_deg": 64.0769,
      "raan_deg": 305.3674,
      "arg_perigee_deg": 310.3613,
      "mean_anomaly_deg": 49.3432,
      "mean_motion_rev_day": 15.10437547
    }
  ]
}